[{"OBJECT_NAME":"STARLINK-4309","OBJECT_ID":"2022-077Z","EPOCH":"2026-03-09T22:35:14.201376","MEAN_MOTION":15.01267523,"ECCENTRICITY":0.00022004,"INCLINATION":97.6019,"RA_OF_ASC_NODE":250.462,"ARG_OF_PERICENTER":219.4226,"MEAN_ANOMALY":140.6839,"EPHEMERIS_TYPE":0,"CLASSIFICATION_TYPE":"U","NORAD_CAT_ID":53066,"ELEMENT_SET_NO":999,"REV_AT_EPOCH":20095,"BSTAR":0.00041084975,"MEAN_MOTION_DOT":5.224e-5,"MEAN_MOTION_DDOT":0},{"OBJECT_NAME":"FENGYUN 1C DEB","OBJECT_ID":"1999-025QY","EPOCH":"2026-03-09T17:49:58.428768","MEAN_MOTION":14.85185603,"ECCENTRICITY":0.01589258,"INCLINATION":99.2245,"RA_OF_ASC_NODE":8.2998,"ARG_OF_PERICENTER":58.4769,"MEAN_ANOMALY":303.1855,"EPHEMERIS_TYPE":0,"CLASSIFICATION_TYPE":"U","NORAD_CAT_ID":30095,"ELEMENT_SET_NO":999,"REV_AT_EPOCH":624,"BSTAR":0.002192592,"MEAN_MOTION_DOT":0.0002358,"MEAN_MOTION_DDOT":0}]
